0 FENGYUN 1C DEB
1 29983U 99025LH  13281.77405873  .00003938  00000-0  11632-2 0  9125
2 29983 099.2023 093.5091 0096130 044.4898 080.7667 14.41477866352722
0 FENGYUN 1C DEB
1 29983U 99025LH  13283.14985279  .00005189  00000-0  15269-2 0  9132
2 29983 099.2023 094.9902 0096098 040.4474 020.2467 14.41495989352922
0 FENGYUN 1C DEB
1 29983U 99025LH  13284.18989433  .00005389  00000-0  15848-2 0  9149
2 29983 099.2021 096.1101 0096091 037.3807 017.4516 14.41502940353079
0 FENGYUN 1C DEB
1 29983U 99025LH  13285.43490197  .00004466  00000-0  13159-2 0  9151
2 29983 099.2017 097.4506 0096066 033.6969 358.3595 14.41514283353254
0 FENGYUN 1C DEB
1 29983U 99025LH  13286.77173384  .00004853  00000-0  14283-2 0  9165
2 29983 099.2013 098.8901 0096045 029.7506 095.8324 14.41524719353443
0 FENGYUN 1C DEB
1 29983U 99025LH  13288.14571174  .00007901  00000-0  23139-2 0  9175
2 29983 099.2009 100.3696 0096020 025.6896 026.1345 14.41540838353640
0 FENGYUN 1C DEB
1 29983U 99025LH  13289.18740715  .00006904  00000-0  20239-2 0  9180
2 29983 099.2008 101.4914 0095997 022.6287 032.0909 14.41552362353790
0 FENGYUN 1C DEB
1 29983U 99025LH  13290.43202904  .00006637  00000-0  19457-2 0  9197
2 29983 099.2008 102.8318 0096009 018.9391 011.2261 14.41564292353977
0 FENGYUN 1C DEB
1 29983U 99025LH  13291.76917736  .00005755  00000-0  16891-2 0  9201
2 29983 099.2012 104.2720 0095983 015.0002 110.5819 14.41577490354160
0 FENGYUN 1C DEB
1 29983U 99025LH  13293.14581725  .00005333  00000-0  15660-2 0  9216
2 29983 099.2015 105.7547 0095948 010.9397 054.9559 14.41590840354366
0 FENGYUN 1C DEB
1 29983U 99025LH  13294.18545723  .00006467  00000-0  18950-2 0  9224
2 29983 099.2018 106.8744 0095952 007.8835 050.4306 14.41599704354513
0 FENGYUN 1C DEB
1 29983U 99025LH  13295.43450304  .00007071  00000-0  20698-2 0  9238
2 29983 099.2020 108.2195 0095962 004.1938 052.7319 14.41612928354699
